[{"OBJECT_NAME":"STARLINK-5022","OBJECT_ID":"2022-119T","EPOCH":"2026-03-09T22:19:50.129184","MEAN_MOTION":15.08840409,"ECCENTRICITY":0.00015172,"INCLINATION":53.2179,"RA_OF_ASC_NODE":322.8459,"ARG_OF_PERICENTER":78.3199,"MEAN_ANOMALY":281.7964,"EPHEMERIS_TYPE":0,"CLASSIFICATION_TYPE":"U","NORAD_CAT_ID":53903,"ELEMENT_SET_NO":999,"REV_AT_EPOCH":19172,"BSTAR":-0.0001058895,"MEAN_MOTION_DOT":-1.973e-5,"MEAN_MOTION_DDOT":0},{"OBJECT_NAME":"CZ-6A DEB","OBJECT_ID":"2024-140AET","EPOCH":"2026-03-09T12:52:08.504256","MEAN_MOTION":14.9565513,"ECCENTRICITY":0.00551091,"INCLINATION":88.9325,"RA_OF_ASC_NODE":275.873,"ARG_OF_PERICENTER":183.9615,"MEAN_ANOMALY":176.1189,"EPHEMERIS_TYPE":0,"CLASSIFICATION_TYPE":"U","NORAD_CAT_ID":64653,"ELEMENT_SET_NO":999,"REV_AT_EPOCH":7426,"BSTAR":0.0038297655,"MEAN_MOTION_DOT":0.00044109,"MEAN_MOTION_DDOT":0}]
